_id,Lat,Long,Area,Area_Name,Hospital_Unit,City,District,NUTS1_Code,NUTS2_Code,County_Code
0,42.72362039,12.26632211,ABR,Abruzzo,PRESIDIO OSPEDALIERO SS ANNUNZIATA,CHIETI,CHIETI,ITF,ITF1,13
1,42.58158408,8.26283616,ABR,Abruzzo,PRESIDIO OSPEDALIERO RENZETTI,LANCIANO,CHIETI,ITF,ITF1,13
2,43.14283809,6.48099741,ABR,Abruzzo,PRESIDIO OSPEDALIERO SAN PIO,VASTO,CHIETI,ITF,ITF1,13
3,42.44137286,11.72436072,ABR,Abruzzo,P.O. SS. FILIPPO E NICOLA,AVEZZANO,L'AQUILA,ITF,ITF1,13
4,35.0233821,13.02407137,ABR,Abruzzo,PRESIDIO OSPEDALIERO SAN SALVATORE,L'AQUILA,L'AQUILA,ITF,ITF1,13
5,43.39991785,11.23464682,ABR,Abruzzo,PRESIDIO OSPEDALIERO SPIRITO SANTO,PESCARA,PESCARA,ITF,ITF1,13
6,42.93789431,10.10754061,ABR,Abruzzo,"PRESIDIO OSPEDALIERO MAZZINI 
",TERAMO,TERAMO,ITF,ITF1,13
7,41.34676713,12.45432356,BAS,Basilicata,A.S.M. P.O. MADONNA DELLE GRAZIE,MATERA,MATERA,ITF,ITF5,17
8,39.35078375,6.96436834,BAS,Basilicata,CHIAROMONTE-ASP DI POTENZA,CHIAROMONTE,POTENZA,ITF,ITF5,17
9,41.11834546,13.48284667,BAS,Basilicata,AOR SAN CARLO,POTENZA,POTENZA,ITF,ITF5,17
10,41.49264328,9.62852653,BAS,Basilicata,IRCCS CROB,RIONERO IN VULTURE,POTENZA,ITF,ITF5,17
11,41.08419529,9.78990704,BAS,Basilicata,VENOSA-ASP DI POTENZA,VENOSA,POTENZA,ITF,ITF5,17
12,39.34174939,11.38511105,CAL,Calabria,MATER DOMINI,CATANZARO,CATANZARO,ITF,ITF6,18
13,39.53688436,13.31409204,CAL,Calabria,PUGLIESE -CIACCIO,CATANZARO,CATANZARO,ITF,ITF6,18
14,39.32555572,13.47000466,CAL,Calabria,"AO COSENZA  - AZIENDA OSPEDALIERA DI COSENZA ""SS. ANNUNZIATA""",COSENZA,COSENZA,ITF,ITF6,18
15,39.64563035,7.00512335,CAL,Calabria,OSPEDALE SPOKE CROTONE,CROTONE,CROTONE,ITF,ITF6,18
16,35.98564047,10.56873871,CAL,Calabria,GOM,REGGIO CALABRIA,REGGIO CALABRIA,ITF,ITF6,18
17,39.2707903,7.79951521,CAL,Calabria,OSPEDALE SPOKE VIBO VALENTIA,VIBO VALENTIA,VIBO VALENTIA,ITF,ITF6,18
18,41.58750198,8.75490135,CAM,Campania,ASL AV P.O. S.OTTONE FRANGIPANE,ARIANO IRPINO,AVELLINO,ITF,ITF3,15
19,41.14944895,12.22414072,CAM,Campania,A.O.R.N. MOSCATI,AVELLINO,AVELLINO,ITF,ITF3,15
20,41.31354484,12.91687437,CAM,Campania,A.O. SAN PIO,BENEVENTO,BENEVENTO,ITF,ITF3,15
21,41.86369071,7.23911825,CAM,Campania,ASL CE PO MOSCATI,AVERSA,CASERTA,ITF,ITF3,15
22,41.75051811,12.49392055,CAM,Campania,A.O.R.N. SANT'ANNA E SAN SEBASTIANO,CASERTA,CASERTA,ITF,ITF3,15
23,41.29553847,10.77687961,CAM,Campania,ASL CE PO MADDALONI,MADDALONI,CASERTA,ITF,ITF3,15
24,42.02635451,13.07873177,CAM,Campania,ASL CE PO MARCIANISE,MARCIANISE,CASERTA,ITF,ITF3,15
25,36.34504864,10.26655159,CAM,Campania,ASL CE PO PIEDIMONTE MATESE,PIEDIMONTE MATESE,CASERTA,ITF,ITF3,15
26,41.73732407,13.95340066,CAM,Campania,ASL CE PO SESSA AURUNCA,SESSA AURUNCA,CASERTA,ITF,ITF3,15
27,39.42248725,6.43155969,CAM,Campania,ASL NAPOLI 3 SUD  PO SAN LEONARDO,CASTELLAMARE DI STABIA,NAPOLI,ITF,ITF3,15
28,41.88348145,13.93155129,CAM,Campania,ASL NAPOLI 2 NORD PO  SAN GIOVANNI DI DIO,FRATTAMAGGIORE,NAPOLI,ITF,ITF3,15
29,41.61007697,12.65554965,CAM,Campania,ASL NAPOLI 2 NORD PO  SAN GIULIANO,GIUGLIANO IN CAMPANIA,NAPOLI,ITF,ITF3,15
30,40.90323525,7.89536565,CAM,Campania,ASL NAPOLI 2 NORD PO A.M. RIZZOLI,ISCHIA,NAPOLI,ITF,ITF3,15
31,44.84690842,9.67319676,CAM,Campania,A.O. DEI COLLI - PO COTUGNO,NAPOLI,NAPOLI,ITF,ITF3,15
32,42.34013782,11.03623968,CAM,Campania,A.O. SANTOBONO PAUSILIPON,NAPOLI,NAPOLI,ITF,ITF3,15
33,35.58288699,6.74703045,CAM,Campania,A.O.R.N. CARDARELLI,NAPOLI,NAPOLI,ITF,ITF3,15
34,42.04159526,13.52401798,CAM,Campania,A.O.U. FEDERICO II,NAPOLI,NAPOLI,ITF,ITF3,15
35,35.80029562,9.84070907,CAM,Campania,A.O.U. VANVITELLI,NAPOLI,NAPOLI,ITF,ITF3,15
36,35.38955021,10.71205904,CAM,Campania,ASL NA 1 CENTRO PO DEL MARE,NAPOLI,NAPOLI,ITF,ITF3,15
37,41.20830793,6.0355098,CAM,Campania,ASL NA1 CENTRO PO SAN PAOLO,NAPOLI,NAPOLI,ITF,ITF3,15
38,39.16521037,7.94409017,CAM,Campania,ASL NAPOLI 3 SUD  PO NOLA,NOLA,NAPOLI,ITF,ITF3,15
39,41.26616918,9.59701266,CAM,Campania,ASL NAPOLI 2 NORD P.O SANTA MARIA DELLE  GRAZIE,POZZUOLI,NAPOLI,ITF,ITF3,15
40,41.26357556,10.24728514,CAM,Campania,ASL SA PO SANTA MARIA DELLA SPERANZA,BATTIPAGLIA,SALERNO,ITF,ITF3,15
41,41.18197117,11.72763513,CAM,Campania,ASL SA PO UMBERTO I,NOCERA INFERIORE,SALERNO,ITF,ITF3,15
42,41.23821445,9.12439881,CAM,Campania,ASL SA PO LUIGI CURTO,POLLA,SALERNO,ITF,ITF3,15
43,41.15967215,8.77071803,CAM,Campania,A.O.U. RUGGI D'ARAGONA,SALERNO,SALERNO,ITF,ITF3,15
44,40.51053197,10.70302633,CAM,Campania,ASL SA PO SAN LUCA,VALLO DELLA LUCANIA,SALERNO,ITF,ITF3,15
45,44.73616694,9.7835594,EMR,Emilia-Romagna,AOSP S.ORSOLA MALPIGHI,BOLOGNA,BOLOGNA,ITH,ITH5,8
46,45.00510815,7.14799283,EMR,Emilia-Romagna,AUSL BOLOGNA OSP.LE BELLARIA,BOLOGNA,BOLOGNA,ITH,ITH5,8
47,45.15161906,6.20201741,EMR,Emilia-Romagna,IRCCS ISTITUTO ORTOPEDICO RIZZOLI,BOLOGNA,BOLOGNA,ITH,ITH5,8
48,45.10748814,12.38375657,EMR,Emilia-Romagna,AUSL IMOLA,IMOLA,BOLOGNA,ITH,ITH5,8
49,41.47932826,8.00487221,EMR,Emilia-Romagna,AOU FERRARA,CONA,FERRARA,ITH,ITH5,8
50,45.20782315,10.56177113,EMR,Emilia-Romagna,"AUSL FERRARA 
OSPEDALE DEL DELTA  ",LAGOSANTO,FERRARA,ITH,ITH5,8
51,44.8330348,6.34179461,EMR,Emilia-Romagna,CENTRO SERVIZI PIEVESISTINA,PIEVESESTINA,FORLÌ-CESENA,ITH,ITH5,8
52,44.80200444,9.7098147,EMR,Emilia-Romagna,AUSL/AOU MODENA,MODENA,MODENA,ITH,ITH5,8
53,45.17634127,8.03196459,EMR,Emilia-Romagna,AUSL/AOU PARMA OSP.LE MAGGIORE,PARMA,PARMA,ITH,ITH5,8
54,45.34147878,9.70554026,EMR,Emilia-Romagna,OSP.LE GUGLIELMO DA SALICETO,PIACENZA,PIACENZA,ITH,ITH5,8
55,44.58475934,9.05772674,EMR,Emilia-Romagna,OSPEDALE RAVENNA,RAVENNA,RAVENNA,ITH,ITH5,8
56,45.63479414,11.09769171,EMR,Emilia-Romagna,IRCCS SANTA MARIA NUOVA,REGGIO EMILIA,REGGIO EMILIA,ITH,ITH5,8
57,44.87778726,12.22840282,EMR,Emilia-Romagna,OSPEDALE RIMINI,RIMINI,RIMINI,ITH,ITH5,8
58,39.748579,10.67327513,FVG,Friuli-Venezia Giulia,MONFALCONE,MONFALCONE,GORIZIA,ITH,ITH4,6
59,46.62583415,13.88130559,FVG,Friuli-Venezia Giulia,SANTA MARIA DEGLI ANGELI,PORDENONE,PORDENONE,ITH,ITH4,6
60,45.68645256,13.25333566,FVG,Friuli-Venezia Giulia,CATTINARA,TRIESTE,TRIESTE,ITH,ITH4,6
61,46.57804681,9.80364388,FVG,Friuli-Venezia Giulia,TOLMEZZO,TOLMEZZO,UDINE,ITH,ITH4,6
62,46.89494658,13.55043309,FVG,Friuli-Venezia Giulia,SANTA MARIA DELLA MISERICORDIA,UDINE,UDINE,ITH,ITH4,6
63,41.91315333,9.17689889,LAZ,Lazio,OSPEDALE SPAZIANI,FROSINONE,FROSINONE,ITI,ITI4,12
64,41.75315432,13.22546385,LAZ,Lazio,OSPEDALE SANTA MARIA GORETTI,LATINA,LATINA,ITI,ITI4,12
65,42.55648071,8.23592598,LAZ,Lazio,OSPEDALE SAN CAMILLO DE LELLIS,RIETI,RIETI,ITI,ITI4,12
66,39.16555689,8.60673751,LAZ,Lazio,AO SAN GIOVANNI ADDOLORATA,ROMA,RM,ITI,ITI4,12
67,43.22810785,11.21662208,LAZ,Lazio,FONDAZIONE POLICLINICO A. GEMELLI IRCCS,ROMA,RM,ITI,ITI4,12
68,41.26709143,6.3991296,LAZ,Lazio,POLICLINICO TOR VERGATA,ROMA,RM,ITI,ITI4,12
69,41.54128793,9.35041259,LAZ,Lazio,ASL RM6 OSPEDALE DEI CASTELLI,ARICCIA RM,ROMA,ITI,ITI4,12
70,38.18454748,12.04213332,LAZ,Lazio,ASL RM4 OSPEDALE SAN PAOLO,CIVITAVECCHIA - RM,ROMA,ITI,ITI4,12
71,36.20834039,9.73533715,LAZ,Lazio,ASL RM5 OSPEDALE PARODI DELFINO  DISTRETTO SANITARIO  G6 FARMACIA,COLLEFERRO RM,ROMA,ITI,ITI4,12
72,40.27341862,13.10714405,LAZ,Lazio,ASL RM3 OSPEDALE G.B. GRASSI,OSTIA-ROMA,ROMA,ITI,ITI4,12
73,35.50881121,9.26184612,LAZ,Lazio,ASL RM2 OSPEDALE SANDRO PERTINI,ROMA,ROMA,ITI,ITI4,12
74,37.40695636,10.22149698,LAZ,Lazio,AZIENDA OPEDALIERASAN CAMILLO-FORLANINI,ROMA,ROMA,ITI,ITI4,12
75,35.02105119,6.92953761,LAZ,Lazio,AZIENDA OSPEDALIERA UNIVERSITARIA SANT'ANDREA,ROMA,ROMA,ITI,ITI4,12
76,40.91604418,12.94388406,LAZ,Lazio,COMPRENSORIO SANTA MARIA DELLA PIETÀ - PADIGLIONE 28,ROMA,ROMA,ITI,ITI4,12
77,38.29472388,13.26219832,LAZ,Lazio,IFO ISTITUTI FIOSIOTERAPICI OSPITALIERI,ROMA,ROMA,ITI,ITI4,12
78,40.72180927,11.55835168,LAZ,Lazio,IRCCS LAZZARO SPALLANZANI,ROMA,ROMA,ITI,ITI4,12
79,39.89277986,11.2554134,LAZ,Lazio,IRCCS OSPEDALE PEDIATRICO BAMBINO GESÙ,ROMA,ROMA,ITI,ITI4,12
80,38.55536966,11.22269982,LAZ,Lazio,POLICLINICO UMBERTO I,ROMA,ROMA,ITI,ITI4,12
81,37.09985941,7.06629161,LAZ,Lazio,POLICLINICO UNIVERSITARIO CAMPUS BIO-MEDICO,ROMA,ROMA,ITI,ITI4,12
82,43.38458724,6.85327937,LAZ,Lazio,OSPEDALE BEL COLLE,VITERBO,VITERBO,ITI,ITI4,12
83,39.53360814,7.78194206,LIG,Liguria,ENTE OSPEDALI GALLIERA,GENOVA,GENOVA (ASL3),ITC,ITC3,7
84,36.52188636,8.72631738,LIG,Liguria,ISTITUTO G. GASLINI-IRCCS,GENOVA,GENOVA (ASL3),ITC,ITC3,7
85,44.81040668,6.29396684,LIG,Liguria,OSPEDALE EVANGELICO INTERNAZIONALE,GENOVA,GENOVA (ASL3),ITC,ITC3,7
86,39.15354403,13.28074108,LIG,Liguria,OSPEDALE POLICLINICO SAN MARTINO-IRCCS,GENOVA,GENOVA (ASL3),ITC,ITC3,7
87,43.98030742,6.87702348,LIG,Liguria,OSPEDALE VILLA SCASSI,GENOVA,GENOVA (ASL3),ITC,ITC3,7
88,35.33821957,6.70115289,LIG,Liguria,OSPEDALE SESTRI LEVANTE,SESTRI LEVANTE (GE),GENOVA (ASL4),ITC,ITC3,7
89,39.65877323,12.2665412,LIG,Liguria,OSPEDALE BORDIGHERA,BORDIGHERA (IM),IMPERIA (ASL1),ITC,ITC3,7
90,44.08153184,12.48929376,LIG,Liguria,OSPEDALE IMPERIA,IMPERIA,IMPERIA (ASL1),ITC,ITC3,7
91,36.11871392,9.51927008,LIG,Liguria,OSPEDALE SANREMO,SANREMO (IM),IMPERIA (ASL1),ITC,ITC3,7
92,44.5816685,11.49147175,LIG,Liguria,OSPEDALE SANT'ANDREA,LA SPEZIA,LA SPEZIA (ASL5),ITC,ITC3,7
93,43.73401952,12.0723392,LIG,Liguria,OSPEDALE SAN BARTOLOMEO,SARZANA (SP),LA SPEZIA (ASL5),ITC,ITC3,7
94,42.05721899,11.82690204,LIG,Liguria,OSPEDALE SAN GIUSEPPE - CAIRO MONTENOTTE,CAIRO MONTENOTTE (SV),SAVONA (ASL2),ITC,ITC3,7
95,42.34054001,13.02966736,LIG,Liguria,OSPEDALE SANTA CORONA,PIETRA LIGURA (SV),SAVONA (ASL2),ITC,ITC3,7
96,44.82603136,10.33452872,LIG,Liguria,OSPEDALE SAN PAOLO,SAVONA,SAVONA (ASL2),ITC,ITC3,7
97,46.33783829,10.30132637,LOM,Lombardia,ASST BERGAMO EST ALZANO LOMBARDO,ALZANO LOMBARDO,BERGAMO,ITC,ITC4,3
98,46.35904134,6.22131485,LOM,Lombardia,ASST PAPA GIOVANNI XXIII 03090500 - BERGAMO OSPEDALI RIUNITI,BERGAMO,BERGAMO,ITC,ITC4,3
99,41.44354204,10.99128455,LOM,Lombardia,ASST DI BERGAMO EST 03038200 - GROPPINO PIARIO  OSP. M.O.A. LOCATELLI,PIARIO (BG),BERGAMO,ITC,ITC4,3
100,46.07008035,7.62074242,LOM,Lombardia,ASST DI BERGAMO EST 03014000 - SERIATE OSP. BOLOGNINI,SERIATE,BERGAMO,ITC,ITC4,3
101,45.8603952,12.82726048,LOM,Lombardia,ASST BERGAMO OVEST TREVIGLIO,TREVIGLIO,BERGAMO,ITC,ITC4,3
102,46.19073081,10.75794157,LOM,Lombardia,"ASST SPEDALI CIVILI DI BRESCIA, UOC FARMACIA AZIENDALE",BRESCIA,BRESCIA,ITC,ITC4,3
103,46.40503843,10.16841738,LOM,Lombardia,FONDAZIONE POLIAMBULANZA,BRESCIA,BRESCIA,ITC,ITC4,3
104,45.7711893,8.58451082,LOM,Lombardia,ISTITUTO CLINICO CITTÀ DI BRESCIA DI ISTITUTI OSPEDALIERI BRESCIANI,BRESCIA,BRESCIA,ITC,ITC4,3
105,46.20475862,6.84062362,LOM,Lombardia,ASST FRANCIACORTA CHIARI,CHIARI,BRESCIA,ITC,ITC4,3
106,38.56029496,12.2713575,LOM,Lombardia,ASST DEL GARDA DESENZANO,DESENZANO,BRESCIA,ITC,ITC4,3
107,46.791096,12.17750893,LOM,Lombardia,ASST DELLA VALCAMONICA 03027402 - OSPEDALE VALCAMONICA - EDOLO,EDOLO,BRESCIA,ITC,ITC4,3
108,46.7320513,6.19067372,LOM,Lombardia,ASST VALCAMONICA ESINE,ESINE,BRESCIA,ITC,ITC4,3
109,45.85804928,8.4994315,LOM,Lombardia,"ASST DEL GARDA 03015700 
- GAVARDO OSP. CIV. LA MEMORIA",GAVARDO,BRESCIA,ITC,ITC4,3
110,45.7570467,11.41345713,LOM,Lombardia,ASST DELLA FRANCIACORTA 03016300 - ISEO OSP. CIVILE,ISEO,BRESCIA,ITC,ITC4,3
111,45.92378928,8.31420436,LOM,Lombardia,ASST GARDA MANERBIO,MANERBIO,BRESCIA,ITC,ITC4,3
112,45.92145523,6.00491832,LOM,Lombardia,ASST LARIANA 03002200 - CANTU' OSP. CIRCOLO,CANTÙ,COMO,ITC,ITC4,3
113,46.57813632,13.14009275,LOM,Lombardia,ASST LARIANA 03002600 - MENAGGIO OSP. DI ZONA,MENAGGIO,COMO,ITC,ITC4,3
114,38.01267993,13.11089265,LOM,Lombardia,ASST LARIANA - PRESIDIO OSPEDALIERO SANT'ANNA COMO,SAN FERMO DELLA BATTAGLIA,COMO,ITC,ITC4,3
115,44.92421862,7.30598107,LOM,Lombardia,ASST DI CREMONA 03027300 - CASALMAGGIORE OSPEDALE (OGLIO PO),", CASALMAGGIORE",CREMONA,ITC,ITC4,3
116,46.08477959,12.51173501,LOM,Lombardia,ASST CREMA  OSPEDALE MAGGIORE DI CREMA,CREMA,CREMONA,ITC,ITC4,3
117,45.23877407,9.32019946,LOM,Lombardia,ASST CREMONA PRESIDIO CREMONA  IMMUNOEMATOLOGIA E MEDICINA TRASFUSIONALE,CREMONA,CREMONA,ITC,ITC4,3
118,46.12699466,9.36116394,LOM,Lombardia,ASST DI LECCO 03002300 - BELLANO OSP. CIRCOLO,BELLANO,LECCO,ITC,ITC4,3
119,46.77250272,7.08977314,LOM,Lombardia,"ASST DI LECCO ""P.O.MANZONI"" LECCO",LECCO,LECCO,ITC,ITC4,3
120,45.21581711,8.26192997,LOM,Lombardia,ASST LODI - OSPEDALE CODOGNO,CODOGNO,LODI,ITC,ITC4,3
121,45.43758329,8.45415299,LOM,Lombardia,ASST LODI - OSPEDALE LODI,LODI,LODI,ITC,ITC4,3
122,46.05849498,11.40296131,LOM,Lombardia,ASST DI MANTOVA - POMA,MANTOVA,MANTOVA,ITC,ITC4,3
123,46.36903613,7.67734386,LOM,Lombardia,ASST NORD MILANO 03005800 - CINISELLO B. OSP. BASSINI,CINISELLO BALSAMO,MILANO,ITC,ITC4,3
124,46.11379947,10.23573803,LOM,Lombardia,ASST RHODENSE 03006600 - GARBAGNATE MILANESE OSP. SALVINI,GARBAGNATE MILANESE,MILANO,ITC,ITC4,3
125,45.75035603,9.52498963,LOM,Lombardia,ASST OVEST MILANESE LEGNANO,LEGNANO,MILANO,ITC,ITC4,3
126,46.12238423,12.5972503,LOM,Lombardia,ASST OVEST MILANESE MAGENTA,MAGENTA,MILANO,ITC,ITC4,3
127,45.69304859,11.31502156,LOM,Lombardia,ASST MELEGNANO E DELLA MARTESANA 03007101 - MELZO OSP. S.MARIA DELLE STELLE,MELZO,MILANO,ITC,ITC4,3
128,43.47357964,6.82445908,LOM,Lombardia,ASST FATEBENEFRATELLI SACCO 03091000 - MILANO OSP. FATEBENEFRATELLI OFTALMICO,MILANO,MILANO,ITC,ITC4,3
129,40.09677368,9.83615945,LOM,Lombardia,ASST FBF SACCO - P.O. SACCO,MILANO,MILANO,ITC,ITC4,3
130,39.92223582,12.42888005,LOM,Lombardia,ASST GAETANO PINI CTO,MILANO,MILANO,ITC,ITC4,3
131,35.07894231,11.56366007,LOM,Lombardia,ASST GRANDE OSPEDALE METROPOLITANO NIGUARDA,MILANO,MILANO,ITC,ITC4,3
132,36.2486954,8.45067062,LOM,Lombardia,ASST SANTI PAOLO E CARLO,MILANO,MILANO,ITC,ITC4,3
133,44.87905319,6.53381172,LOM,Lombardia,ASST SANTI PAOLO E CARLO 03091500 - MILANO OSP. S.CARLO,MILANO,MILANO,ITC,ITC4,3
134,39.19258225,8.0848471,LOM,Lombardia,FONDAZIONE IRCCS CA' GRANDA OSPEDALE MAGGIORE POLICLINICO,MILANO,MILANO,ITC,ITC4,3
135,43.68052229,10.90214845,LOM,Lombardia,FONDAZIONE IRCCS ISTITUTO NAZIONALE DEI TUMORI MILANO,MILANO,MILANO,ITC,ITC4,3
136,42.51691772,12.38940415,LOM,Lombardia,FONDAZIONE IRCCS ISTITUTO NEUROLOGICO BESTA,MILANO,MILANO,ITC,ITC4,3
137,44.802988,6.97633479,LOM,Lombardia,GRUPPO MULTIMEDICA - OSPEDALE SAN GIUSEPPE,MILANO,MILANO,ITC,ITC4,3
138,40.2034111,10.92577446,LOM,Lombardia,IRCCS OSPEDALE SAN RAFFAELE,MILANO,MILANO,ITC,ITC4,3
139,44.7336843,11.22788825,LOM,Lombardia,IRCSS SANTA MARIA NASCENTE (DON GNOCCHI),MILANO,MILANO,ITC,ITC4,3
140,40.99510552,13.10834566,LOM,Lombardia,ISTITUTO AUXOLOGICO ITALIANO - OSPEDALE SAN LUCA,MILANO,MILANO,ITC,ITC4,3
141,44.40457063,6.77672644,LOM,Lombardia,PIO ALBERGO TRIVULZIO,MILANO,MILANO,ITC,ITC4,3
142,46.10820354,13.80057479,LOM,Lombardia,ASST RHODENSE 03007300 - RHO  OSP. CIRCOLO,RHO,MILANO,ITC,ITC4,3
143,45.85322131,13.94037023,LOM,Lombardia,HUMANTIAS MIRASOLE,ROZZANO,MILANO,ITC,ITC4,3
144,46.33985998,12.85062861,LOM,Lombardia,IRCCS POLICLINICO SAN DONATO S.P.A.,SAN DONATO MILANESE,MILANO,ITC,ITC4,3
145,35.73617091,9.39903905,LOM,Lombardia,ASST NORD MILANO - P.O. SESTO S.G.,SESTO,MILANO,ITC,ITC4,3
146,38.67844351,11.53613903,LOM,Lombardia,ASST MELEGNANO E DELLA MARTESANA 03007201 - MELEGNANO OSP. PREDABISSI,VIZZOLO PREDABISSI,MILANO,ITC,ITC4,3
147,45.69566594,6.10911394,LOM,Lombardia,ASST DI MONZA 03006800 - DESIO OSP. CIRCOLO,DESIO,MONZA BRIANZA,ITC,ITC4,3
148,46.08996997,7.49034764,LOM,Lombardia,ASST DI MONZA 03090900 - MONZA OSP. S.GERARDO,MONZA,MONZA BRIANZA,ITC,ITC4,3
149,45.8723768,6.807569,LOM,Lombardia,ASST VIMERCATE,VIMERCATE,MONZA BRIANZA,ITC,ITC4,3
150,45.98585325,8.38040227,LOM,Lombardia,FONDAZIONE IRCCS POLICLINICO SAN MATTEO,PAVIA,PAVIA,ITC,ITC4,3
151,45.51360611,11.48870863,LOM,Lombardia,ASST DI PAVIA 03019300 - VIGEVANO OSP. CIVILE,VIGEVANO,PAVIA,ITC,ITC4,3
152,45.91927732,9.82210804,LOM,Lombardia,ASST DI PAVIA 03019400 - VOGHERA OSP. CIVILE,VOGHERA,PAVIA,ITC,ITC4,3
153,47.30975629,8.88051681,LOM,Lombardia,ASST DELLA VALTELLINA E DELL'ALTO LARIO 03004400 - CHIAVENNA OSP. CIVILE,CHIAVENNA,SONDRIO,ITC,ITC4,3
154,47.01405487,7.9542761,LOM,Lombardia,ASST DELLA VALTELLINA E DELL'ALTO LARIO 03090400 - SONDALO OSP. EUGENIO MORELLI,SONDALO,SONDRIO,ITC,ITC4,3
155,46.62315999,8.94656042,LOM,Lombardia,ASST VALTELLINA E DELL'ALTO LARIO PO DI SONDRIO,SONDRIO,SONDRIO,ITC,ITC4,3
156,46.21952257,10.00449586,LOM,Lombardia,ASST DEI SETTE LAGHI 03001200 - ANGERA OSP. ONDOLI,ANGERA,VARESE,ITC,ITC4,3
157,45.73119211,10.82045017,LOM,Lombardia,ASST VALLE OLONA DI BUSTO ARSIZIO - PRESIDIO DI BUSTO ARSIZIO,BUSTO ARSIZIO,VARESE,ITC,ITC4,3
158,46.37224253,8.72757913,LOM,Lombardia,ASST DELLA VALLE OLONA 03000600 - GALLARATE OSP. S.ANTONIO ABATE,GALLARATE,VARESE,ITC,ITC4,3
159,46.68717,10.53366661,LOM,Lombardia,ASST DEI SETTE LAGHI 03028202 - LUINO PRES.DEL VERBANO,LUINO,VARESE,ITC,ITC4,3
160,46.19949862,6.10389637,LOM,Lombardia,ASST DELLA VALLE OLONA 03000800 - SARONNO OSP. CIRCOLO,SARONNO,VARESE,ITC,ITC4,3
161,46.78260581,8.81533797,LOM,Lombardia,ASST SETTE LAGHI,VARESE,VARESE,ITC,ITC4,3
162,44.54560359,9.90331496,MAR,Marche,INRCA - PRESIDIO OSPEDALIERO DI RICERCA,ANCONA,ANCONA,ITI,ITI3,11
163,44.11560129,13.81958912,MAR,Marche,"OSPEDALE ""CARLO URBANI"" - HUB",JESI,ANCONA,ITI,ITI3,11
164,43.82799086,8.01790463,MAR,Marche,OSPEDALE MADONNA DEL SOCCORSO,SAN BENEDETTO DEL TRONTO,ASCOLI PICENO,ITI,ITI3,11
165,43.96565049,7.73974377,MAR,Marche,OSPEDALE AUGUSTO MURRI - FERMO,FERMO,FERMO,ITI,ITI3,11
166,43.98470464,13.00161131,MAR,Marche,OSPEDALE DI CAMERINO,CAMERINO,MACERATA,ITI,ITI3,11
167,43.85919519,8.33183884,MAR,Marche,OSPEDALE DI CIVITANOVA MARCHE,CIVITANOVA MARCHE,MACERATA,ITI,ITI3,11
168,44.33600799,7.89085364,MAR,Marche,OSPEDALE DI COMUNITÀ FOSSOMBRONE,FOSSOMBRONE,PESARO URBINO,ITI,ITI3,11
169,41.7213062,9.93168517,MOL,Molise,"P.O. ""A. CARDARELLI""",CAMPOBASSO,CAMPOBASSO,ITF,ITF2,14
170,42.5450762,8.61499418,MOL,Molise,"P.O. ""SAN TIMOTEO""",TERMOLI,CAMPOBASSO,ITF,ITF2,14
171,47.25910955,7.90046278,PAB,Provincia Autonoma Bolzano / Bozen,OSPEDALE DI BOLZANO,BOLZANO,PA BOLZANO,ITH,ITH1,4
172,47.01315723,9.81987883,PAB,Provincia Autonoma Bolzano / Bozen,OSPEDALE DI BRESSANONE,BRESSANONE,PA BOLZANO,ITH,ITH1,4
173,47.476124,10.88948607,PAB,Provincia Autonoma Bolzano / Bozen,OSPEDALE DI BRUNICO,BRUNICO,PA BOLZANO,ITH,ITH1,4
174,46.919787,6.25629793,PAB,Provincia Autonoma Bolzano / Bozen,OSPEDALE DI MERANO,MERANO,PA BOLZANO,ITH,ITH1,4
175,35.02920547,8.70061801,PAB,Provincia Autonoma Bolzano / Bozen,OSPEDALE DI SAN CANDIDO,SAN CANDIDO BZ,PA BOLZANO,ITH,ITH1,4
176,47.48151271,6.52635614,PAB,Provincia Autonoma Bolzano / Bozen,OSPEDALE DI SILANDRO,SILANDRO,PA BOLZANO,ITH,ITH1,4
177,36.11169937,7.98761759,PAB,Provincia Autonoma Bolzano / Bozen,OSPEDALE DI VIPITENO,VIPITENO BZ,PA BOLZANO,ITH,ITH1,4
178,38.06186861,11.46558004,PAT,Provincia Autonoma Trento,HUB - UNIFARM,RAVINA,PA TRENTO,ITH,ITH2,4
179,46.73254436,7.51754398,PAT,Provincia Autonoma Trento,OSPEDALE DI ROVERETO,ROVERETO,PA TRENTO,ITH,ITH2,4
180,46.82184734,9.47845795,PAT,Provincia Autonoma Trento,OSPEDALE DI TRENTO,TRENTO,PA TRENTO,ITH,ITH2,4
181,45.25398471,8.17219891,PIE,Piemonte,AOU SANTI ANTONIO BIAGIO E CESARE ARRIGO ALESSANDRIA,ALESSANDRIA,ALESSANDRIA,ITC,ITC1,1
182,45.76369229,10.57789383,PIE,Piemonte,ASL AL OSPEDALE CASALE  MONFERRATO,CASALE MONFERRATO,ALESSANDRIA,ITC,ITC1,1
183,45.38637615,9.45548049,PIE,Piemonte,ASL AL OSPEDALE NOVI LIGURE,NOVI LIGURE,ALESSANDRIA,ITC,ITC1,1
184,45.06808904,9.91226862,PIE,Piemonte,ASL AL OSPEDALE TORTONA,TORTONA,ALESSANDRIA,ITC,ITC1,1
185,45.15177983,13.9386689,PIE,Piemonte,ASL AT OSPEDALE CARDINAL MASSAIA ASTI,ASTI,ASTI,ITC,ITC1,1
186,45.7339961,10.40070191,PIE,Piemonte,ASL AT OSPEDALE NIZZA MONFERRATO,NIZZA MONFERRATO,ASTI,ITC,ITC1,1
187,37.91985577,6.94983339,PIE,Piemonte,ASL BI OSPEDALE DEGLI INFERMI BIELLA,PONDERANO,BIELLA,ITC,ITC1,1
188,44.88626039,7.6433153,PIE,Piemonte,AO S. CROCE E CARLE CUNEO,CUNEO,CUNEO,ITC,ITC1,1
189,41.19183449,12.74441311,PIE,Piemonte,ASL CN 1 OSPEDALE MONDOVI’,MONDOVI’,CUNEO,ITC,ITC1,1
190,45.21143823,10.6643428,PIE,Piemonte,ASL CN 1 OSPEDALE SAVIGLIANO,SAVIGLIANO,CUNEO,ITC,ITC1,1
191,37.09760537,13.02138351,PIE,Piemonte,ASL CN 2 OSPEDALE VERDUNO,VERDUNO,CUNEO,ITC,ITC1,1
192,45.8377295,6.51275371,PIE,Piemonte,ASL NO OSPEDALE BORGOMANERO,BORGOMANERO,NOVARA,ITC,ITC1,1
193,45.45009402,10.89262281,PIE,Piemonte,AOU MAGGIORE DELLA CARITA’ NOVARA,NOVARA,NOVARA,ITC,ITC1,1
194,45.80676317,13.73649133,PIE,Piemonte,ASL NOVARA,NOVARA,NOVARA,ITC,ITC1,1
195,46.15434604,10.2538094,PIE,Piemonte,ASL TO 4 OSPEDALE CHIVASSO,CHIVASSO,TORINO,ITC,ITC1,1
196,36.7131057,10.88128412,PIE,Piemonte,ASL TO 4 OSPEDALE CIRIE’,CIRIE’,TORINO,ITC,ITC1,1
197,46.40321871,9.2981099,PIE,Piemonte,ASL TO 4 OSPEDALE IVREA,IVREA,TORINO,ITC,ITC1,1
198,45.75936447,13.56902315,PIE,Piemonte,ASL TO 5 OSPEDALE MONCALIERI,MONCALIERI,TORINO,ITC,ITC1,1
199,45.82197227,12.99413831,PIE,Piemonte,AOU SAN LUIGI GONZAGA  ORBASSANO,ORBASSANO,TORINO,ITC,ITC1,1
200,45.22850342,6.61911308,PIE,Piemonte,ASL TO 3 OSPEDALE PINEROLO,PINEROLO,TORINO,ITC,ITC1,1
201,45.14742521,8.1575525,PIE,Piemonte,ASL TO 3 OSPEDALE RIVOLI,RIVOLI,TORINO,ITC,ITC1,1
202,35.92333757,10.15268559,PIE,Piemonte,AO MAURIZIANO TORINO,TORINO,TORINO,ITC,ITC1,1
203,37.24259979,7.06293837,PIE,Piemonte,AOU CITTA’ DELLA SALUTE E DELLA SCIENZA DI TORINO,TORINO,TORINO,ITC,ITC1,1
204,35.69072964,12.8341097,PIE,Piemonte,ASL CITTA’ DI TORINO OSPEDALE SAN GIOVANNI BOSCO/OSPEDALE MARIA VITTORIA,TORINO,TORINO,ITC,ITC1,1
205,46.77210929,10.69520617,PIE,Piemonte,ASL VCO OSPEDALE DOMODOSSOLA,DOMODOSSOLA,VERBANO CUSIO OSSOLA,ITC,ITC1,1
206,40.15045562,10.98466178,PIE,Piemonte,ASL VCO OSPEDALE VERBANIA,PALLANZA,VERBANO CUSIO OSSOLA,ITC,ITC1,1
207,46.24384885,12.64555958,PIE,Piemonte,ASL VC OSPEDALE BORGOSESIA,BORGOSESIA,VERCELLI,ITC,ITC1,1
208,45.79444905,12.83014473,PIE,Piemonte,ASL VC OSPEDALE S. ANDREA VERCELLI,VERCELLI,VERCELLI,ITC,ITC1,1
209,41.11529052,8.30953218,PUG,Puglia,IRCCS MIULLI,ACQUAVIVA DELLE FONTI,BARI,ITF,ITF4,16
210,41.72733594,6.60432512,PUG,Puglia,CONSORZIALE POLICLINICO,BARI,BARI,ITF,ITF4,16
211,41.51573572,12.21771626,PUG,Puglia,IRCCS GIOVANNI PAOLO II,BARI,BARI,ITF,ITF4,16
212,41.2859595,8.69906156,PUG,Puglia,IRCCS DE BELLIS,CASTELLANA GROTTE,BARI,ITF,ITF4,16
213,41.79842844,8.04590796,PUG,Puglia,DIMICCOLI (BARLETTA),BARLETTA,BARLETTA ANDRIA TRANI,ITF,ITF4,16
214,41.33145071,12.936185,PUG,Puglia,OSPEDALE DI SUMMA PERRINO,BRINDISI,BRINDISI,ITF,ITF4,16
215,41.96615739,7.46333484,PUG,Puglia,OSPEDALI RIUNITI,FOGGIA,FOGGIA,ITF,ITF4,16
216,42.09237191,9.32063474,PUG,Puglia,IRCCS CASA SOLLIEVO SOFFERENZA,SAN GIOVANNI ROTONDO,FOGGIA,ITF,ITF4,16
217,41.04923574,6.13423962,PUG,Puglia,OSPEDALE VITO FAZZI,LECCE,LECCE,ITF,ITF4,16
218,40.2241797,7.53645355,PUG,Puglia,IRCCS CARD. G. PANICO,TRICASE,LECCE,ITF,ITF4,16
219,41.35502431,11.52375578,PUG,Puglia,OSPEDALE SAN GIUSEPPE MOSCATI,STATTE,TARANTO,ITF,ITF4,16
220,39.73288224,10.07409922,SAR,Sardegna,A. BUSINCO - ARNAS G BROTZU,CAGLIARI,CAGLIARI,ITG,ITG2,20
221,39.27475236,7.15946556,SAR,Sardegna,PO BINAGHI,CAGLIARI,CAGLIARI,ITG,ITG2,20
222,39.9028014,12.32918409,SAR,Sardegna,SAN MICHELE - ARNAS G BROTZU,CAGLIARI,CAGLIARI,ITG,ITG2,20
223,39.3780149,6.55535306,SAR,Sardegna,AOU CAGLIARI POLICLINICO DUILIO CASULA,MONSERRATO,CAGLIARI,ITG,ITG2,20
224,40.10763,11.17348782,SAR,Sardegna,PO SIRAI,CARBONIA,CARBONIA IGLESIAS,ITG,ITG2,20
225,40.43953225,13.15026143,SAR,Sardegna,PO NS DI BONARIA,SAN GAVINO MONREALE,MEDIO CAMPIDANO,ITG,ITG2,20
226,41.20015119,11.10924222,SAR,Sardegna,PO SAN FRANCESCO,NUORO,NUORO,ITG,ITG2,20
227,40.81639129,8.74416564,SAR,Sardegna,PO NOSTRA SIGNORA DELLA MERCEDE,LANUSEI,OGLIASTRA,ITG,ITG2,20
228,41.40987726,11.46970697,SAR,Sardegna,PO GIOVANNI PAOLO II,OLBIA,OLBIA TEMPIO,ITG,ITG2,20
229,40.56879524,12.46634714,SAR,Sardegna,PO SAN MARTINO,ORISTANO,ORISTANO,ITG,ITG2,20
230,41.43402655,12.52179993,SAR,Sardegna,PO ANTONIO SEGNI,OZIERI,SASSARI,ITG,ITG2,20
231,41.15037514,9.18954865,SAR,Sardegna,AOU DI SASSARI,SASSARI,SASSARI,ITG,ITG2,20
232,38.17586545,7.45214125,SIC,Sicilia,P.O. “S. GIOVANNI DI DIO” DI AGRIGENTO,AGRIGENTO,AGRIGENTO,ITG,ITG1,19
233,44.85161796,6.56383213,SIC,Sicilia,"P.O. ""BARONE LOMBARDO"" DI CANICATTÌ",CANICATTIÌ,AGRIGENTO,ITG,ITG1,19
234,37.43560753,12.31588029,SIC,Sicilia,"P.O. ""SAN GIACOMO D'ALTOPASSO"" DI LICATA",LICATA,AGRIGENTO,ITG,ITG1,19
235,37.7847004,6.75742133,SIC,Sicilia,"P.O. ""F.LLI PARLAPIANO"" DI RIBERA",RIBERA,AGRIGENTO,ITG,ITG1,19
236,37.86629444,7.4852867,SIC,Sicilia,P.O. “OSPEDALI CIVILI RIUNITI” DI SCIACCA,SCIACCA,AGRIGENTO,ITG,ITG1,19
237,37.95229984,11.8400318,SIC,Sicilia,P.O. “S. ELIA” DI CALTANISSETTA,CALTANISSETTA,CALTANISSETTA,ITG,ITG1,19
238,37.97268535,6.32936253,SIC,Sicilia,P.O. GRAVINA DI CALTAGIRONE ASP CT,CALTAGIRONE,CATANIA,ITG,ITG1,19
239,38.21907915,7.36731748,SIC,Sicilia,"A.O. PER L'EMERGENZA ""CANNIZZARO"" – CATANIA",CATANIA,CATANIA,ITG,ITG1,19
240,37.75367962,9.84121156,SIC,Sicilia,"A.O. UNIVERSITARIA POLICLINICO DI CATANIA ""S. MARCO""",CATANIA,CATANIA,ITG,ITG1,19
241,37.76747468,10.60118168,SIC,Sicilia,NUOVO OSPEDALE GARIBALDI - NESIMA – OSPEDALE GARIBALDI – CENTRO,CATANIA,CATANIA,ITG,ITG1,19
242,38.00696189,13.86971468,SIC,Sicilia,P.O. GASAPARE RODOLICO,CATANIA,CATANIA,ITG,ITG1,19
243,38.41274501,11.14195064,SIC,Sicilia,P.O. “UMBERTO I” – ENNA,ENNA,ENNA,ITG,ITG1,19
244,37.89413045,6.84470526,SIC,Sicilia,IRCCS OASI MARIA SS.,TROINA,ENNA,ITG,ITG1,19
245,39.12838363,8.0018199,SIC,Sicilia,AUOP G. MARTINO,MESSINA,MESSINA,ITG,ITG1,19
246,39.128849,11.06220155,SIC,Sicilia,IRCCS CENTRO NEUROLESI 2 – BONINO PULEJO – P.O. CASAZZA,MESSINA,MESSINA,ITG,ITG1,19
247,38.44845549,10.68858457,SIC,Sicilia,IRCCS CENTRO NEUROLESI 2 – BONINO PULEJO – P.O. PIEMONTE,MESSINA,MESSINA,ITG,ITG1,19
248,38.19960164,13.2404207,SIC,Sicilia,P.O. PAPARDO MESSINA,MESSINA,MESSINA,ITG,ITG1,19
249,38.26358717,7.45500933,SIC,Sicilia,P.O. PATTI,PATTI,MESSINA,ITG,ITG1,19
250,38.2925353,11.86415152,SIC,Sicilia,P.O. TAORMINA,TAORMINA,MESSINA,ITG,ITG1,19
251,42.48179531,7.15584553,SIC,Sicilia,P.O. “DEI BIANCHI” – CORLEONE,,PALERMO,ITG,ITG1,19
252,42.65561951,12.50152199,SIC,Sicilia,P.O. “G. F. INGRASSIA” /VILLA DELLE GINESTRE,,PALERMO,ITG,ITG1,19
253,37.9108367,9.46642042,SIC,Sicilia,P.O. PARTINICO,,PALERMO,ITG,ITG1,19
254,38.62073574,9.88286817,SIC,Sicilia,A.O.O.R. VILLA SOFIA – CERVELLO P.O. CTO,PALERMO,PALERMO,ITG,ITG1,19
255,38.47457573,6.31146396,SIC,Sicilia,A.U.O.P. PALERMO,PALERMO,PALERMO,ITG,ITG1,19
256,38.94099889,6.42653869,SIC,Sicilia,ISMETT,PALERMO,PALERMO,ITG,ITG1,19
257,38.15319639,10.59752911,SIC,Sicilia,P.O. ARNAS CIVICO PA,PALERMO,PALERMO,ITG,ITG1,19
258,38.73177789,8.17507831,SIC,Sicilia,P.O. MADONNA DELL’ALTO – PETRALIA SOTTANA,PETRALIA SOTTANA,PALERMO,ITG,ITG1,19
259,38.35104762,13.94194059,SIC,Sicilia,P.O. S.CIMINO TERMINI IMERESE,TERMINI IMERESE,PALERMO,ITG,ITG1,19
260,37.344377,8.85246979,SIC,Sicilia,DEA I LIVELLO RAGUSA (SIMT)\GIOVANNI PAOLO II,RAGUSA,RAGUSA,ITG,ITG1,19
261,36.99127558,11.82021191,SIC,Sicilia,P.O. “BUSACCA” DI SCICLI,RAGUSA,RAGUSA,ITG,ITG1,19
262,36.99323721,10.34538088,SIC,Sicilia,P.O. “GUZZARDI” DI VITTORIA,RAGUSA,RAGUSA,ITG,ITG1,19
263,37.84238711,9.03789013,SIC,Sicilia,P.O. “MAGGIORE” DI MODICA,RAGUSA,RAGUSA,ITG,ITG1,19
264,37.76401001,9.52546676,SIC,Sicilia,P.O. “R. MARGHERITA” DI COMISO,RAGUSA,RAGUSA,ITG,ITG1,19
265,37.59805386,10.5189465,SIC,Sicilia,P.O. “UMBERTO I” – SIRACUSA,SIRACUSA,SIRACUSA,ITG,ITG1,19
266,38.98825317,13.71030544,SIC,Sicilia,“S. ANTONIO ABATE” DI TRAPANI,CASA SANTA,TRAPANI,ITG,ITG1,19
267,38.44741531,11.75673236,SIC,Sicilia,"P.O. ""ABELE AJELLO"" - MAZARA DEL VALLO",MAZARA DEL VALLO,TRAPANI,ITG,ITG1,19
268,44.23828738,8.11231909,TOS,Toscana,OSPEDALE S. DONATO,AREZZO,AREZZO,ITI,ITI1,9
269,43.88569615,6.84523141,TOS,Toscana,OSPEDALE SAN GIUSEPPE,EMPOLI,FIRENZE,ITI,ITI1,9
270,39.37536258,6.84607742,TOS,Toscana,AOU CAREGGI,FIRENZE,FIRENZE,ITI,ITI1,9
271,38.32860887,6.01891328,TOS,Toscana,OSPEDALE NUOVO S.GIOVANNI DI DIO,FIRENZE,FIRENZE,ITI,ITI1,9
272,43.07954817,10.71542105,TOS,Toscana,OSPEDALE DELLA MISERICORDIA,GROSSETO,GROSSETO,ITI,ITI1,9
273,44.01043955,12.18988287,TOS,Toscana,OSPEDALE LIVORNO,LIVORNO,LIVORNO,ITI,ITI1,9
274,43.98389883,13.29751763,TOS,Toscana,PRESIDIO OSPEDALIERO SAN LUCA,LUCCA,LUCCA,ITI,ITI1,9
275,44.31578345,6.31646595,TOS,Toscana,OSPEDALE  DELLE APUANE,MASSA,MASSA-CARRARA,ITI,ITI1,9
276,43.82071568,12.30783974,TOS,Toscana,AOU PISANA,PISA,PISA,ITI,ITI1,9
277,44.326593,9.18038926,TOS,Toscana,OSPEDALE SAN IACOPO,PISTOIA,PISTOIA,ITI,ITI1,9
278,44.79593924,12.57431673,TOS,Toscana,OSPEDALE SANTO STEFANO,PRATO,PRATO,ITI,ITI1,9
279,43.57208123,11.44970047,TOS,Toscana,AOU SENESE,SIENA,SIENA,ITI,ITI1,9
280,43.48216406,12.50357995,UMB,Umbria,OSPEDALE DI CITTA' DI CASTELLO,CITTÀ DI CASTELLO,PERUGIA,ITI,ITI2,10
281,43.84461004,9.05165086,UMB,Umbria,OSPEDALE DI FOLIGNO,FOLIGNO,PERUGIA,ITI,ITI2,10
282,43.34127799,8.28490243,UMB,Umbria,AZIENDA OSPEDALIERA DI PERUGIA,PERUGIA,PERUGIA,ITI,ITI2,10
283,42.63826173,13.71334311,UMB,Umbria,AZIENDA OSPEDALIERA DI TERNI,TERNI,TERNI,ITI,ITI2,10
284,46.32867304,11.01022879,VDA,Valle d'Aosta / Vallée d'Aoste,OSPEDALE UMBERTO PARINI,AOSTA,AOSTA,ITC,ITC2,2
285,45.98017174,9.03516779,VDA,Valle d'Aosta / Vallée d'Aoste,OSPEDALE UMBERTO PARINI - HUB,AOSTA,AOSTA,ITC,ITC2,2
286,46.33835084,13.40776333,VEN,Veneto,OSPEDALE S. MARTINO BELLUNO,BELLUNO,BELLUNO,ITH,ITH3,5
287,46.296511,8.41012502,VEN,Veneto,AZIENDA OSPEDALE UNIVERSITA' PADOVA,PADOVA,PADOVA,ITH,ITH3,5
288,45.87063604,10.07223473,VEN,Veneto,"OSPEDALE ""SANTA MARIA DELLA MISERICORDIA""",ROVIGO,ROVIGO,ITH,ITH3,5
289,46.77794184,8.6413952,VEN,Veneto,OSPEDALE DI VITTORIO VENETO,VITTORIO VENETO,TREVISO,ITH,ITH3,5
290,44.02454665,9.27464457,VEN,Veneto,OSPEDALE DELL'ANGELO,VENEZIA MESTRE,VENEZIA,ITH,ITH3,5
291,45.51307169,13.54930738,VEN,Veneto,AZIENDA OSPEDALIERA UNIVERSITARIA INTEGRATA DI VERONA,VERONA,VERONA,ITH,ITH3,5
292,45.8844017,10.89425732,VEN,Veneto,OSPEDALE DI VICENZA,VICENZA,VICENZA,ITH,ITH3,5
